#cP2007  3 31  0  0  0.00000000      96 ORBIT IGS05 HLM  IGS
## 1420 518400.00000000   900.00000000 54190 0.0000000000000
+   30   G01G02G03G04G05G06G07G08G09G10G11G12G13G14G16G17G18
+        G19G20G21G22G23G24G25G26G27G28G29G30G31  0  0  0  0
+          0  0  0  0  0  0  0  0  0  0  0  0  0  0  0  0  0
+          0  0  0  0  0  0  0  0  0  0  0  0  0  0  0  0  0
+          0  0  0  0  0  0  0  0  0  0  0  0  0  0  0  0  0
++         3  3  3  3  3  3  3  3  3  3  3  3  3  3  3  3  3
++         3  3  3  3  3  3  3  3  3  3  3  3  3  0  0  0  0
++         0  0  0  0  0  0  0  0  0  0  0  0  0  0  0  0  0
++         0  0  0  0  0  0  0  0  0  0  0  0  0  0  0  0  0
++         0  0  0  0  0  0  0  0  0  0  0  0  0  0  0  0  0
%c G  cc GPS ccc cccc cccc cccc cccc ccccc ccccc ccccc ccccc
%c cc cc ccc ccc cccc cccc cccc cccc ccccc ccccc ccccc ccccc
%f  1.2500000  1.025000000  0.00000000000  0.000000000000000
%f  0.0000000  0.000000000  0.00000000000  0.000000000000000
%i    0    0    0    0      0      0      0      0         0
%i    0    0    0    0      0      0      0      0         0
/* FINAL ORBIT COMBINATION FROM WEIGHTED AVERAGE OF:        
/* cod emr esa gfz jpl mit ngs sio                          
/* REFERENCED TO IGS TIME (IGST) AND TO WEIGHTED MEAN POLE: 
/* PCV:IGS05_1402 OL/AL:FES2004  NONE     Y  ORB:CMB CLK:CMB
*  2007  3 31 16 30  0.00000000
PG01 -14520.571458  21677.288336  -4590.825786    117.286314 10 10  5 175       
PG02  15247.660944 -13576.181831  16617.085850     95.020674 10  9  8 199       
PG03 -10281.372857  24140.221995   2532.105395     35.837304  6 10  8 184       
PG04  25207.406586  -6490.296899   6109.790766      9.414292  7  9  5 133       
PG05 -14189.299090 -22082.712744  -4805.111204     39.779324  9  7  8 166       
PG06 -10393.142610 -14003.960302  20209.935751    117.831570  9  7  8 184       
PG07 -13424.617704  -9044.911924  21394.299863    363.485579  9  6 10 189       
PG08  26575.047414    830.934681   3236.668819   -102.001403  5  8  7 152       
PG09  -4202.431143 -14927.932843 -22163.242741     64.000503  8  8  8 157       
PG10   4516.554108 -17194.155531  19511.458726     99.612483  8  7  5 184       
PG11   7323.637121  15198.364911 -20643.301855     11.922627  8 11  7 181       
PG12 -11170.270580 -23236.320551  -6384.303009    -44.039229  7 11  9 187       
PG13  10759.652671  10315.786977  21890.712300    158.574709  9  8  6 143       
PG14 -17374.559315   9365.253897 -17658.594964     13.899801  8 10  9 172       
PG16  -9610.364119  12384.791180  21508.969195    135.766096 10  8  8 182       
PG17  17598.028612  -7360.551784 -18421.647296     73.325617  7 10  7 145       
PG18 -19246.560808 -14140.189784 -11830.219179   -252.361073  8 10  7 153       
PG19  -6697.227605  24353.699806  -7943.550839     20.200717  8  9  8 189       
PG20  12054.362101  23075.364071  -5473.887021    -23.280410  7 12  7 190       
PG21 -23991.609320  -6121.963231  10450.706429     74.552735  7 10 10 142       
PG22 -18037.523614  -2825.636849 -19146.465777    174.570249  9 11  8 165       
PG23   3913.438054  19729.907418  17162.371653    157.389560 10  8  7 149       
PG24 -12954.684997 -13033.890183  19277.549124     89.180079  7  4  7 163       
PG25  -2689.763522  15925.747367  21524.696252    264.411897  8  6  7 156       
PG26   7348.926770 -24437.727642  -6581.740548   -117.179797 10  9  8 184       
PG27  22903.927346   5593.980032  13115.289980    102.390391  7  9  5 134       
PG28  19101.550977   7152.047575 -16867.011467      4.221058 10 10  9 150       
PG29  10214.523104 -24263.402775  -1090.892071      1.107584 10 11  8 176       
PG30 -17938.805144 -19330.454354   3334.700801     29.711089  7  3  9 166       
PG31 -24070.896548   8108.472540   8083.130400     18.088021 11 11 10 194       
*  2007  3 31 16 45  0.00000000
PG01 -14372.386381  20962.723244  -7398.706400    117.289774 10 10  5 158       
PG02  17102.213610 -13601.911818  14681.484369     95.023617 10  9  9 199       
PG03 -10499.564535  23575.027925   5288.248326     35.842043  6 10  8 199       
PG04  25779.560621  -6291.646622   3373.160280      9.414704  6  9  5 138       
PG05 -13521.123822 -21776.482053  -7491.254457     39.775659  9  7  8 163       
PG06  -9491.971457 -16039.711357  19094.834910    117.849889  9  8  8 182       
PG07 -12594.454003 -11249.664222  20830.218406    363.472387  9  7 10 188       
PG08  26055.199073   1048.263399   6034.546988   -102.002697  6  8  7 149       
PG09  -1824.484448 -15324.141757 -22197.164341     64.001658  7  8  8 157       
PG10   5968.573821 -15374.221375  20631.072577     99.612542  8  7  5 185       
PG11   5053.419968  15897.600752 -20771.135880     11.923404  8 11  7 185       
PG12 -10437.829558 -22669.753485  -9051.676341    -44.039048  6 11  9 190       
PG13   9697.145835  12554.921142  21214.111908    158.578053  9  8  6 145       
PG14 -16614.219112   7379.897915 -19257.970908     13.901470  8 10  9 171       
PG16 -11105.752908  10428.463507  21837.650126    135.769080 10  8  8 178       
PG17  16862.630446  -5292.577935 -19780.508381     73.324802  7 10  7 151       
PG18 -19766.451585 -15267.781837  -9369.881378   -252.360605  8  9  7 149       
PG19  -7269.829852  24926.791604  -5222.058665     20.204210  8  8  8 183       
PG20  11377.256614  22629.526954  -8167.306437    -23.280668  8 13  7 192       
PG21 -22718.269636  -6471.025234  12791.261270     74.553381  7 10 10 140       
PG22 -19128.638628  -4669.634189 -17684.356668    174.572089  9 11  8 169       
PG23   3040.954478  21394.334363  15229.098083    157.391335 10  8  7 158       
PG24 -10729.004162 -13326.087571  20448.791844     89.182209  6  5  7 168       
PG25  -4977.127167  16386.724686  20757.641537    264.389531  8  7  7 149       
PG26   7756.208916 -24853.454713  -3709.288314   -117.197244 10  9  9 187       
PG27  21442.776597   6038.481633  15293.203849    102.392842  7  9  4 143       
PG28  20068.679926   8752.459574 -14947.378589      4.220321 10 10  9 151       
PG29  10393.662904 -24167.726456   1841.997457      1.109004 10 11  8 169       
PG30 -17876.432040 -19710.333261    527.024221     29.713276  7  3  9 164       
PG31 -24839.962536   7976.271536   5369.388239     18.089513 11 10 10 192       
*  2007  3 31 17  0  0.00000000
PG01 -14149.447445  19949.095765 -10077.947329    117.293705 11  9  5 203       
PG02  18721.323927 -13673.789963  12486.427856     95.026603  9  9  9 198       
PG03 -10670.801034  22720.524504   7951.102503     35.847846  7 10  7 200       
PG04  26055.371799  -6069.651329    579.684068      9.415751  6  9  6 132       
PG05 -12630.238674 -21297.207808 -10050.560403     39.771968 10  7  7 162       
PG06  -8731.740801 -17981.096454  17655.661990    117.868204  9  9  8 179       
PG07 -11894.844500 -13415.004838  19917.826683    363.459143  9  7 10 186       
PG08  25242.138176   1340.039229   8730.908609   -102.003772  6  8  6 143       
PG09    515.066886 -15845.957513 -21868.856145     64.001599  7  8  7 147       
PG10   7581.073698 -13552.509279  21389.729863     99.611316  7  7  5 183       
PG11   2816.721787  16690.010740 -20544.768400     11.924738  8 11  7 188       
PG12  -9483.703002 -21920.384359 -11563.038733    -44.039152  5 12  9 190       
PG13   8799.969099  14758.849850  20169.566354    158.581026  9  8  5 140       
PG14 -15910.254720   5201.798878 -20523.074904     13.903008  9 11  9 169       
PG16 -12711.554887   8542.494682  21793.376284    135.771960 10  9  8 173       
PG17  16190.562844  -3063.327500 -20797.685410     73.323769  8 11  7 152       
PG18 -20166.663730 -16140.916723  -6750.347532   -252.359952  7  8  7 146       
PG19  -7689.177271  25239.114410  -2409.914759     20.207752  9  7  8 184       
PG20  10483.295313  21996.653031 -10720.994336    -23.280959  8 13  7 196       
PG21 -21216.879585  -6922.497760  14919.002784     74.553882  8 10  9 140       
PG22 -20197.980773  -6310.423514 -15914.670225    174.573700  9 11  8 166       
PG23   2335.501740  22880.695900  13030.062073    157.393196  9  9  7 162       
PG24  -8413.584045 -13747.105979  21272.170328     89.184245  6  6  7 168       
PG25  -7136.855998  16939.028318  19647.140724    264.367161  8  7  7 146       
PG26   8023.550283 -24979.270456   -771.125945   -117.214900  9  9  9 186       
PG27  19790.023594   6614.817987  17221.158844    102.395091  8  9  4 143       
PG28  20969.206832  10116.151984 -12769.022232      4.219524 10 10  9 161       
PG29  10467.185528 -23767.199780   4742.526854      1.108792  9 11  8 168       
PG30 -17619.470335 -19858.424445  -2289.697913     29.714059  8  4  9 162       
PG31 -25310.187220   7823.564463   2564.032466     18.090672 10 10  9 191       
EOF
